{"type": "FeatureCollection", "features": [ {"type": "Feature", "properties": {"norad_id": 66546, "name": "SHIJIAN-30B", "group": "last-30-days", "lat": -26.75426723216877, "lon": -41.92963192222675, "alt_km": 517.0633092237758, "timestamp": "2025-12-10T21:43:20.862176+00:00", "meta": {"OBJECT_NAME": "SHIJIAN-30B", "OBJECT_ID": "2025-266B", "EPOCH": "2025-12-10T17:07:38.963424", "MEAN_MOTION": 15.1533073, "ECCENTRICITY": 0.0010381, "INCLINATION": 51.7969, "RA_OF_ASC_NODE": 342.3603, "ARG_OF_PERICENTER": 351.822, "MEAN_ANOMALY": 8.2585, "EPHEMERIS_TYPE": 0, "CLASSIFICATION_TYPE": "U", "NORAD_CAT_ID": 66546, "ELEMENT_SET_NO": 999, "REV_AT_EPOCH": 327, "BSTAR": 0.00083824, "MEAN_MOTION_DOT": 0.00015742, "MEAN_MOTION_DDOT": 0}, "tle": {"line1": "1 66546U 25266B   25344.71364541  .00015742  00000+0  83824-3 0  9993", "line2": "2 66546  51.7969 342.3603 0010381 351.8220   8.2585 15.15330730  3279"}}, "geometry": {"type": "Point", "coordinates": [-41.92963192222675, -26.75426723216877]}}, {"type": "Feature", "properties": {"norad_id": 66547, "name": "SHIJIAN-30C", "group": "last-30-days", "lat": -28.635849338556, "lon": -43.997843276115944, "alt_km": 515.9472046206929, "timestamp": "2025-12-10T21:43:20.862187+00:00", "meta": {"OBJECT_NAME": "SHIJIAN-30C", "OBJECT_ID": "2025-266C", "EPOCH": "2025-12-10T18:43:19.349184", "MEAN_MOTION": 15.15444846, "ECCENTRICITY": 0.0011342, "INCLINATION": 51.7978, "RA_OF_ASC_NODE": 342.0565, "ARG_OF_PERICENTER": 343.7923, "MEAN_ANOMALY": 16.2689, "EPHEMERIS_TYPE": 0, "CLASSIFICATION_TYPE": "U", "NORAD_CAT_ID": 66547, "ELEMENT_SET_NO": 999, "REV_AT_EPOCH": 328, "BSTAR": 0.00087881, "MEAN_MOTION_DOT": 0.0001658, "MEAN_MOTION_DDOT": 0}, "tle": {"line1": "1 66547U 25266C   25344.78008506  .00016580  00000+0  87881-3 0  9995", "line2": "2 66547  51.7978 342.0565 0011342 343.7923  16.2689 15.15444846  3281"}}, "geometry": {"type": "Point", "coordinates": [-43.997843276115944, -28.635849338556]}}, {"type": "Feature", "properties": {"norad_id": 66548, "name": "CZ-2C R/B", "group": "last-30-days", "lat": 6.413801905404123, "lon": -14.948998681695011, "alt_km": 528.8821795792101, "timestamp": "2025-12-10T21:43:20.862197+00:00", "meta": {"OBJECT_NAME": "CZ-2C R/B", "OBJECT_ID": "2025-266D", "EPOCH": "2025-12-10T13:50:55.825728", "MEAN_MOTION": 15.30105455, "ECCENTRICITY": 0.00840381, "INCLINATION": 52.0563, "RA_OF_ASC_NODE": 341.5825, "ARG_OF_PERICENTER": 165.603, "MEAN_ANOMALY": 194.7379, "EPHEMERIS_TYPE": 0, "CLASSIFICATION_TYPE": "U", "NORAD_CAT_ID": 66548, "ELEMENT_SET_NO": 999, "REV_AT_EPOCH": 328, "BSTAR": 0.00046953982, "MEAN_MOTION_DOT": 0.00015091, "MEAN_MOTION_DDOT": 0}, "tle": {"line1": "1 66548U 25266D   25344.57703502  .00015091  00000+0  46954-3 0  9993", "line2": "2 66548  52.0563 341.5825 0084038 165.6030 194.7379 15.30105455  3286"}}, "geometry": {"type": "Point", "coordinates": [-14.948998681695011, 6.413801905404123]}}, {"type": "Feature", "properties": {"norad_id": 66549, "name": "SHIJIAN-28", "group": "last-30-days", "lat": 6.69493026755039, "lon": -51.084595665962205, "alt_km": 27089.25608188241, "timestamp": "2025-12-10T21:43:20.862210+00:00", "meta": {"OBJECT_NAME": "SHIJIAN-28", "OBJECT_ID": "2025-277A", "EPOCH": "2025-12-01T04:36:42.476256", "MEAN_MOTION": 2.08595383, "ECCENTRICITY": 0.6308324, "INCLINATION": 11.5392, "RA_OF_ASC_NODE": 275.706, "ARG_OF_PERICENTER": 179.9335, "MEAN_ANOMALY": 180.3971, "EPHEMERIS_TYPE": 0, "CLASSIFICATION_TYPE": "U", "NORAD_CAT_ID": 66549, "ELEMENT_SET_NO": 999, "REV_AT_EPOCH": 5, "BSTAR": 0, "MEAN_MOTION_DOT": -3.3e-07, "MEAN_MOTION_DDOT": 0}, "tle": {"line1": "1 66549U 25277A   25335.19215829 -.00000033  00000+0  00000+0 0  9993", "line2": "2 66549  11.5392 275.7060 6308324 179.9335 180.3971  2.08595383    50"}}, "geometry": {"type": "Point", "coordinates": [-51.084595665962205, 6.69493026755039]}}, {"type": "Feature", "properties": {"norad_id": 66550, "name": "CZ-7A R/B", "group": "last-30-days", "lat": 9.612809482820559, "lon": -47.95423449608539, "alt_km": 19941.219467125276, "timestamp": "2025-12-10T21:43:20.862232+00:00", "meta": {"OBJECT_NAME": "CZ-7A R/B", "OBJECT_ID": "2025-277B", "EPOCH": "2025-12-09T05:27:24.418944", "MEAN_MOTION": 2.57975656, "ECCENTRICITY": 0.71041719, "INCLINATION": 14.4001, "RA_OF_ASC_NODE": 271.6446, "ARG_OF_PERICENTER": 185.6905, "MEAN_ANOMALY": 156.7335, "EPHEMERIS_TYPE": 0, "CLASSIFICATION_TYPE": "U", "NORAD_CAT_ID": 66550, "ELEMENT_SET_NO": 999, "REV_AT_EPOCH": 25, "BSTAR": 0.0029500826, "MEAN_MOTION_DOT": 0.01805656, "MEAN_MOTION_DDOT": 5.50612e-07}, "tle": {"line1": "1 66550U 25277B   25343.22736596  .01805656  55061-6  29501-2 0  9995", "line2": "2 66550  14.4001 271.6446 7104171 185.6905 156.7335  2.57975656   258"}}, "geometry": {"type": "Point", "coordinates": [-47.95423449608539, 9.612809482820559]}}, {"type": "Feature", "properties": {"norad_id": 66551, "name": "USA 568", "group": "last-30-days", "lat": 17.01095737852805, "lon": 2.832542150588032, "alt_km": 296.2804537267539, "timestamp": "2025-12-10T21:43:20.862245+00:00", "meta": {"OBJECT_NAME": "USA 568", "OBJECT_ID": "2024-134K", "EPOCH": "2025-12-02T16:00:03.000096", "MEAN_MOTION": 15.87051116, "ECCENTRICITY": 7.17e-05, "INCLINATION": 53.1571, "RA_OF_ASC_NODE": 236.7807, "ARG_OF_PERICENTER": 110.7411, "MEAN_ANOMALY": 313.9012, "EPHEMERIS_TYPE": 0, "CLASSIFICATION_TYPE": "U", "NORAD_CAT_ID": 66551, "ELEMENT_SET_NO": 999, "REV_AT_EPOCH": 262, "BSTAR": -0.0074303, "MEAN_MOTION_DOT": -0.01709685, "MEAN_MOTION_DDOT": 0}, "tle": {"line1": "1 66551U 24134K   25336.66670139 -.01709685  00000+0 -74303-2 0  9990", "line2": "2 66551  53.1571 236.7807 0000717 110.7411 313.9012 15.87051116  2624"}}, "geometry": {"type": "Point", "coordinates": [2.832542150588032, 17.01095737852805]}}, {"type": "Feature", "properties": {"norad_id": 66554, "name": "GLOBAL-33", "group": "last-30-days", "lat": 7.858494708734694, "lon": 76.40154303236933, "alt_km": 466.9596869711295, "timestamp": "2025-12-10T21:43:20.862256+00:00", "meta": {"OBJECT_NAME": "GLOBAL-33", "OBJECT_ID": "2025-267A", "EPOCH": "2025-12-10T15:24:39.487680", "MEAN_MOTION": 15.31574515, "ECCENTRICITY": 0.00044949, "INCLINATION": 42.0208, "RA_OF_ASC_NODE": 69.1028, "ARG_OF_PERICENTER": 38.4593, "MEAN_ANOMALY": 321.6564, "EPHEMERIS_TYPE": 0, "CLASSIFICATION_TYPE": "U", "NORAD_CAT_ID": 66554, "ELEMENT_SET_NO": 999, "REV_AT_EPOCH": 308, "BSTAR": 0.0006382923, "MEAN_MOTION_DOT": 0.00019688, "MEAN_MOTION_DDOT": 0}, "tle": {"line1": "1 66554U 25267A   25344.64212370  .00019688  00000+0  63829-3 0  9993", "line2": "2 66554  42.0208  69.1028 0004494  38.4593 321.6564 15.31574515  3088"}}, "geometry": {"type": "Point", "coordinates": [76.40154303236933, 7.858494708734694]}}, {"type": "Feature", "properties": {"norad_id": 66555, "name": "ELECTRON KICK STAGE R/B", "group": "last-30-days", "lat": 38.86615013267496, "lon": 130.9644638626439, "alt_km": 457.6894572917254, "timestamp": "2025-12-10T21:43:20.862266+00:00", "meta": {"OBJECT_NAME": "ELECTRON KICK STAGE R/B", "OBJECT_ID": "2025-267B", "EPOCH": "2025-12-10T13:36:01.716192", "MEAN_MOTION": 15.32640708, "ECCENTRICITY": 0.00066771, "INCLINATION": 42.0194, "RA_OF_ASC_NODE": 69.4021, "ARG_OF_PERICENTER": 35.6686, "MEAN_ANOMALY": 324.4597, "EPHEMERIS_TYPE": 0, "CLASSIFICATION_TYPE": "U", "NORAD_CAT_ID": 66555, "ELEMENT_SET_NO": 999, "REV_AT_EPOCH": 307, "BSTAR": 0.0011507822, "MEAN_MOTION_DOT": 0.00037019, "MEAN_MOTION_DDOT": 0}, "tle": {"line1": "1 66555U 25267B   25344.56668653  .00037019  00000+0  11508-2 0  9998", "line2": "2 66555  42.0194  69.4021 0006677  35.6686 324.4597 15.32640708  3071"}}, "geometry": {"type": "Point", "coordinates": [130.9644638626439, 38.86615013267496]}}, {"type": "Feature", "properties": {"norad_id": 66557, "name": "STARLINK-35699", "group": "last-30-days", "lat": -41.11370917274002, "lon": 62.44032456579691, "alt_km": 417.6447526345992, "timestamp": "2025-12-10T21:43:20.862277+00:00", "meta": {"OBJECT_NAME": "STARLINK-35699", "OBJECT_ID": "2025-268A", "EPOCH": "2025-12-10T14:00:03.000384", "MEAN_MOTION": 15.50627127, "ECCENTRICITY": 0.00012286, "INCLINATION": 43.0002, "RA_OF_ASC_NODE": 133.8112, "ARG_OF_PERICENTER": 263.9775, "MEAN_ANOMALY": 23.2421, "EPHEMERIS_TYPE": 0, "CLASSIFICATION_TYPE": "U", "NORAD_CAT_ID": 66557, "ELEMENT_SET_NO": 999, "REV_AT_EPOCH": 432, "BSTAR": -0.0023067088, "MEAN_MOTION_DOT": -0.00133608, "MEAN_MOTION_DDOT": 0}, "tle": {"line1": "1 66557U 25268A   25344.58336806 -.00133608  00000+0 -23067-2 0  9991", "line2": "2 66557  43.0002 133.8112 0001228 263.9775  23.2421 15.50627127  4320"}}, "geometry": {"type": "Point", "coordinates": [62.44032456579691, -41.11370917274002]}}, {"type": "Feature", "properties": {"norad_id": 66558, "name": "STARLINK-35695", "group": "last-30-days", "lat": -40.64151360101774, "lon": 64.83285661527765, "alt_km": 417.06622830271044, "timestamp": "2025-12-10T21:43:20.862287+00:00", "meta": {"OBJECT_NAME": "STARLINK-35695", "OBJECT_ID": "2025-268B", "EPOCH": "2025-12-10T14:00:03.000384", "MEAN_MOTION": 15.50529786, "ECCENTRICITY": 0.00019238, "INCLINATION": 43.0003, "RA_OF_ASC_NODE": 133.8068, "ARG_OF_PERICENTER": 266.0902, "MEAN_ANOMALY": 23.0346, "EPHEMERIS_TYPE": 0, "CLASSIFICATION_TYPE": "U", "NORAD_CAT_ID": 66558, "ELEMENT_SET_NO": 999, "REV_AT_EPOCH": 432, "BSTAR": 0.0013912939, "MEAN_MOTION_DOT": 0.00081996, "MEAN_MOTION_DDOT": 0}, "tle": {"line1": "1 66558U 25268B   25344.58336806  .00081996  00000+0  13913-2 0  9991", "line2": "2 66558  43.0003 133.8068 0001923 266.0902  23.0346 15.50529786  4326"}}, "geometry": {"type": "Point", "coordinates": [64.83285661527765, -40.64151360101774]}}]}